OBJECT_NAME,OBJECT_ID,EPOCH,MEAN_MOTION,ECCENTRICITY,INCLINATION,RA_OF_ASC_NODE,ARG_OF_PERICENTER,MEAN_ANOMALY,EPHEMERIS_TYPE,CLASSIFICATION_TYPE,NORAD_CAT_ID,ELEMENT_SET_NO,REV_AT_EPOCH,BSTAR,MEAN_MOTION_DOT,MEAN_MOTION_DDOT
SAR-LUPE 2,2007-030A,2026-07-13T14:06:02.648160,15.53578702,.0004727,98.1059,302.3772,208.2104,151.8892,0,U,31797,999,6103,.40366151E-3,.25645E-3,0
SAPPHIRE,2013-009C,2026-07-13T15:41:01.121280,14.35247309,.00114938,98.4272,13.4824,164.3695,195.7848,0,U,39088,999,70037,.28745057E-4,.39E-6,0
PRAETORIAN SDA_602,2025-203A,2026-07-13T11:35:45.482784,13.83887782,.00070282,81.3041,346.4205,121.4684,238.7161,0,U,65565,999,4233,.6772096E-5,.19E-6,0
PRAETORIAN SDA_603,2025-203B,2026-07-13T12:16:37.193376,13.83962380,.0010754,81.3047,346.3160,118.9897,241.2339,0,U,65566,999,4234,.95137706E-4,.118E-5,0
PRAETORIAN SDA_604,2025-203C,2026-07-13T13:09:07.046208,13.83049973,.00065372,81.3064,346.7355,125.0569,235.1201,0,U,65567,999,4232,.10006682E-4,.23E-6,0
PRAETORIAN SDA_605,2025-203D,2026-07-13T12:11:19.588704,13.83199862,.0009283,81.3029,346.4144,117.3151,242.8952,0,U,65568,999,4233,.4493406E-5,.17E-6,0
PRAETORIAN SDA_606,2025-203E,2026-07-13T11:49:58.601568,13.83200030,.00071318,81.3065,346.6654,119.9498,240.2367,0,U,65569,999,4232,.11929053E-4,.25E-6,0
PRAETORIAN SDA_607,2025-203F,2026-07-13T11:37:04.853280,13.83758599,.00099554,81.3049,346.2958,118.8315,241.3843,0,U,65570,999,4234,.97375263E-4,.12E-5,0
PRAETORIAN SDA_608,2025-203G,2026-07-13T11:12:01.492416,13.83819310,.00070236,81.3017,346.4762,124.1951,235.9872,0,U,65571,999,4232,.16025885E-4,.3E-6,0
PRAETORIAN SDA_609,2025-203H,2026-07-13T12:52:27.946848,13.84210997,.00078768,81.3060,346.3899,118.9325,241.2623,0,U,65572,999,4234,.69021659E-4,.89E-6,0
PRAETORIAN SDA_610,2025-203J,2026-07-08T21:24:36.728928,13.83769338,.00076481,81.3015,350.6711,134.1093,226.0694,0,U,65573,999,4169,.29957645E-4,.45E-6,0
PRAETORIAN SDA_611,2025-203K,2026-07-13T12:42:01.509696,13.83311995,.00067705,81.3019,346.5621,127.7547,232.4223,0,U,65574,999,4232,.85420674E-4,.106E-5,0
PRAETORIAN SDA_612,2025-203L,2026-07-13T11:39:44.264736,13.85040619,.00103131,81.3038,346.1239,118.8344,241.3850,0,U,65575,999,4235,.1188518E-3,.146E-5,0
PRAETORIAN SDA_613,2025-203M,2026-07-13T13:06:38.671488,13.82767548,.00067444,81.3010,346.5643,118.5810,241.6026,0,U,65576,999,4232,.16232516E-4,.3E-6,0
PRAETORIAN SDA_614,2025-203N,2026-07-13T13:15:21.006144,13.84778467,.00081931,81.3025,346.1471,117.0450,243.1544,0,U,65577,999,4236,.3409197E-5,.16E-6,0
PRAETORIAN SDA_615,2025-203P,2026-07-13T12:51:24.558624,13.84438467,.00101572,81.3033,346.1428,117.8884,242.3303,0,U,65578,999,4235,.11022088E-3,.135E-5,0
PRAETORIAN SDA_616,2025-203Q,2026-07-13T12:42:01.428480,13.83269930,.00065421,81.3074,346.7254,126.0583,234.1180,0,U,65579,999,4232,.10029712E-3,.122E-5,0
PRAETORIAN SDA_617,2025-203R,2026-07-13T13:16:22.292256,13.83152025,.0008451,81.3048,346.5322,117.4976,242.7040,0,U,65580,999,4233,.18853415E-4,.33E-6,0
PRAETORIAN SDA_618,2025-203S,2026-07-13T12:04:01.214976,13.84225644,.00108302,81.3032,346.1049,120.9986,239.2236,0,U,65581,999,4235,.92836923E-4,.116E-5,0
PRAETORIAN SDA_619,2025-203T,2026-07-13T13:11:33.082944,13.83806206,.00093122,81.3055,346.3884,118.4222,241.7875,0,U,65582,999,4297,.88282719E-4,.11E-5,0
PRAETORIAN SDA_620,2025-203U,2026-07-13T12:16:54.405984,13.83207625,.00085921,81.3043,346.4544,115.5995,244.6050,0,U,65583,999,4233,.10997832E-3,.132E-5,0
PRAETORIAN SDA_621,2025-203V,2026-07-13T11:30:04.601088,13.83803655,.00084724,81.3031,346.3863,112.8382,247.3670,0,U,65584,999,4233,.1774034E-5,.14E-6,0
PRAETORIAN SDA_601,2025-203W,2026-07-13T12:49:16.880160,13.83170955,.00066793,81.3050,346.6621,128.7026,231.4728,0,U,65585,999,4232,.39359462E-3,.443E-5,0
VICTUS HAZE PUMA,2026-142A,2026-07-13T15:59:17.700576,15.20841534,.00250321,97.4471,91.9874,271.5686,88.2682,0,U,69646,999,369,.98816407E-4,.2127E-4,0
