SAR-LUPE 2              
1 31797U 07030A   26194.58753065  .00025645  00000+0  40366-3 0  9991
2 31797  98.1059 302.3772 0004727 208.2104 151.8892 15.53578702 61039
SAPPHIRE                
1 39088U 13009C   26194.65348520  .00000039  00000+0  28745-4 0  9997
2 39088  98.4272  13.4824 0011493 164.3695 195.7848 14.35247309700373
PRAETORIAN SDA_602      
1 65565U 25203A   26194.48316531  .00000019  00000+0  67721-5 0  9999
2 65565  81.3041 346.4205 0007028 121.4684 238.7161 13.83887782 42338
PRAETORIAN SDA_603      
1 65566U 25203B   26194.51154159  .00000118  00000+0  95138-4 0  9992
2 65566  81.3047 346.3160 0010754 118.9897 241.2339 13.83962380 42346
PRAETORIAN SDA_604      
1 65567U 25203C   26194.54799822  .00000023  00000+0  10007-4 0  9995
2 65567  81.3064 346.7355 0006537 125.0569 235.1201 13.83049973 42327
PRAETORIAN SDA_605      
1 65568U 25203D   26194.50786561  .00000017  00000+0  44934-5 0  9998
2 65568  81.3029 346.4144 0009283 117.3151 242.8952 13.83199862 42336
PRAETORIAN SDA_606      
1 65569U 25203E   26194.49303937  .00000025  00000+0  11929-4 0  9995
2 65569  81.3065 346.6654 0007131 119.9498 240.2367 13.83200030 42328
PRAETORIAN SDA_607      
1 65570U 25203F   26194.48408395  .00000120  00000+0  97375-4 0  9995
2 65570  81.3049 346.2958 0009955 118.8315 241.3843 13.83758599 42348
PRAETORIAN SDA_608      
1 65571U 25203G   26194.46668394  .00000030  00000+0  16026-4 0  9995
2 65571  81.3017 346.4762 0007023 124.1951 235.9872 13.83819310 42327
PRAETORIAN SDA_609      
1 65572U 25203H   26194.53643457  .00000089  00000+0  69022-4 0  9995
2 65572  81.3060 346.3899 0007876 118.9325 241.2623 13.84210997 42341
PRAETORIAN SDA_610      
1 65573U 25203J   26189.89209177  .00000045  00000+0  29958-4 0  9992
2 65573  81.3015 350.6711 0007648 134.1093 226.0694 13.83769338 41695
PRAETORIAN SDA_611      
1 65574U 25203K   26194.52918414  .00000106  00000+0  85421-4 0  9995
2 65574  81.3019 346.5621 0006770 127.7547 232.4223 13.83311995 42323
PRAETORIAN SDA_612      
1 65575U 25203L   26194.48592899  .00000146  00000+0  11885-3 0  9992
2 65575  81.3038 346.1239 0010313 118.8344 241.3850 13.85040619 42352
PRAETORIAN SDA_613      
1 65576U 25203M   26194.54628092  .00000030  00000+0  16233-4 0  9990
2 65576  81.3010 346.5643 0006744 118.5810 241.6026 13.82767548 42323
PRAETORIAN SDA_614      
1 65577U 25203N   26194.55232646  .00000016  00000+0  34092-5 0  9996
2 65577  81.3025 346.1471 0008193 117.0450 243.1544 13.84778467 42369
PRAETORIAN SDA_615      
1 65578U 25203P   26194.53570091  .00000135  00000+0  11022-3 0  9992
2 65578  81.3033 346.1428 0010157 117.8884 242.3303 13.84438467 42359
PRAETORIAN SDA_616      
1 65579U 25203Q   26194.52918320  .00000122  00000+0  10030-3 0  9997
2 65579  81.3074 346.7254 0006542 126.0583 234.1180 13.83269930 42324
PRAETORIAN SDA_617      
1 65580U 25203R   26194.55303579  .00000033  00000+0  18853-4 0  9999
2 65580  81.3048 346.5322 0008451 117.4976 242.7040 13.83152025 42339
PRAETORIAN SDA_618      
1 65581U 25203S   26194.50279184  .00000116  00000+0  92837-4 0  9995
2 65581  81.3032 346.1049 0010830 120.9986 239.2236 13.84225644 42358
PRAETORIAN SDA_619      
1 65582U 25203T   26194.54968846  .00000110  00000+0  88283-4 0  9994
2 65582  81.3055 346.3884 0009312 118.4222 241.7875 13.83806206 42974
PRAETORIAN SDA_620      
1 65583U 25203U   26194.51174081  .00000132  00000+0  10998-3 0  9993
2 65583  81.3043 346.4544 0008592 115.5995 244.6050 13.83207625 42337
PRAETORIAN SDA_621      
1 65584U 25203V   26194.47921992  .00000014  00000+0  17740-5 0  9993
2 65584  81.3031 346.3863 0008472 112.8382 247.3670 13.83803655 42338
PRAETORIAN SDA_601      
1 65585U 25203W   26194.53422315  .00000443  00000+0  39359-3 0  9990
2 65585  81.3050 346.6621 0006679 128.7026 231.4728 13.83170955 42320
VICTUS HAZE PUMA        
1 69646U 26142A   26194.66617709  .00002127  00000+0  98816-4 0  9997
2 69646  97.4471  91.9874 0025032 271.5686  88.2682 15.20841534  3695
